{"type": "FeatureCollection", "features": [ {"type": "Feature", "properties": {"norad_id": 41175, "name": "GSAT0208 (GALILEO 11)", "group": "galileo", "lat": -53.229999822908844, "lon": 40.70198305490962, "alt_km": 23227.50431691903, "timestamp": "2025-12-06T03:35:02.133019+00:00", "meta": {"OBJECT_NAME": "GSAT0208 (GALILEO 11)", "OBJECT_ID": "2015-079B", "EPOCH": "2025-12-03T08:09:32.138784", "MEAN_MOTION": 1.70474152, "ECCENTRICITY": 0.00019072, "INCLINATION": 55.7055, "RA_OF_ASC_NODE": 106.6362, "ARG_OF_PERICENTER": 9.6551, "MEAN_ANOMALY": 350.3047, "EPHEMERIS_TYPE": 0, "CLASSIFICATION_TYPE": "U", "NORAD_CAT_ID": 41175, "ELEMENT_SET_NO": 999, "REV_AT_EPOCH": 6185, "BSTAR": 0, "MEAN_MOTION_DOT": 2.2e-07, "MEAN_MOTION_DDOT": 0}, "tle": {"line1": "1 41175U 15079B   25337.33995531  .00000022  00000+0  00000+0 0  9990", "line2": "2 41175  55.7055 106.6362 0001907   9.6551 350.3047  1.70474152 61857"}}, "geometry": {"type": "Point", "coordinates": [40.70198305490962, -53.229999822908844]}}, {"type": "Feature", "properties": {"norad_id": 41549, "name": "GSAT0211 (GALILEO 14)", "group": "galileo", "lat": -22.72377500310331, "lon": 63.9554893384669, "alt_km": 23236.618893260402, "timestamp": "2025-12-06T03:35:02.133030+00:00", "meta": {"OBJECT_NAME": "GSAT0211 (GALILEO 14)", "OBJECT_ID": "2016-030A", "EPOCH": "2025-12-04T15:17:32.790048", "MEAN_MOTION": 1.70472925, "ECCENTRICITY": 0.00039451, "INCLINATION": 55.1551, "RA_OF_ASC_NODE": 227.0467, "ARG_OF_PERICENTER": 12.3132, "MEAN_ANOMALY": 347.7919, "EPHEMERIS_TYPE": 0, "CLASSIFICATION_TYPE": "U", "NORAD_CAT_ID": 41549, "ELEMENT_SET_NO": 999, "REV_AT_EPOCH": 5935, "BSTAR": 0, "MEAN_MOTION_DOT": 4e-07, "MEAN_MOTION_DDOT": 0}, "tle": {"line1": "1 41549U 16030A   25338.63718507  .00000040  00000+0  00000+0 0  9993", "line2": "2 41549  55.1551 227.0467 0003945  12.3132 347.7919  1.70472925 59357"}}, "geometry": {"type": "Point", "coordinates": [63.9554893384669, -22.72377500310331]}}, {"type": "Feature", "properties": {"norad_id": 41550, "name": "GSAT0210 (GALILEO 13)", "group": "galileo", "lat": 38.995050764722144, "lon": -98.69840018665579, "alt_km": 23221.580597275402, "timestamp": "2025-12-06T03:35:02.133041+00:00", "meta": {"OBJECT_NAME": "GSAT0210 (GALILEO 13)", "OBJECT_ID": "2016-030B", "EPOCH": "2025-12-04T07:23:32.472672", "MEAN_MOTION": 1.70473512, "ECCENTRICITY": 0.0001419, "INCLINATION": 55.1546, "RA_OF_ASC_NODE": 227.0538, "ARG_OF_PERICENTER": 244.2228, "MEAN_ANOMALY": 115.8568, "EPHEMERIS_TYPE": 0, "CLASSIFICATION_TYPE": "U", "NORAD_CAT_ID": 41550, "ELEMENT_SET_NO": 999, "REV_AT_EPOCH": 5934, "BSTAR": 0, "MEAN_MOTION_DOT": 4e-07, "MEAN_MOTION_DDOT": 0}, "tle": {"line1": "1 41550U 16030B   25338.30801473  .00000040  00000+0  00000+0 0  9994", "line2": "2 41550  55.1546 227.0538 0001419 244.2228 115.8568  1.70473512 59344"}}, "geometry": {"type": "Point", "coordinates": [-98.69840018665579, 38.995050764722144]}}, {"type": "Feature", "properties": {"norad_id": 41859, "name": "GSAT0207 (GALILEO 15)", "group": "galileo", "lat": -45.031517522266014, "lon": -29.872664741707393, "alt_km": 23226.94483412694, "timestamp": "2025-12-06T03:35:02.133053+00:00", "meta": {"OBJECT_NAME": "GSAT0207 (GALILEO 15)", "OBJECT_ID": "2016-069A", "EPOCH": "2025-12-03T23:59:33.819072", "MEAN_MOTION": 1.70474248, "ECCENTRICITY": 0.0002136, "INCLINATION": 55.3774, "RA_OF_ASC_NODE": 106.4923, "ARG_OF_PERICENTER": 325.6107, "MEAN_ANOMALY": 34.3288, "EPHEMERIS_TYPE": 0, "CLASSIFICATION_TYPE": "U", "NORAD_CAT_ID": 41859, "ELEMENT_SET_NO": 999, "REV_AT_EPOCH": 5607, "BSTAR": 0, "MEAN_MOTION_DOT": 1.5e-07, "MEAN_MOTION_DDOT": 0}, "tle": {"line1": "1 41859U 16069A   25337.99969698  .00000015  00000+0  00000+0 0  9998", "line2": "2 41859  55.3774 106.4923 0002136 325.6107  34.3288  1.70474248 56074"}}, "geometry": {"type": "Point", "coordinates": [-29.872664741707393, -45.031517522266014]}}, {"type": "Feature", "properties": {"norad_id": 41860, "name": "GSAT0212 (GALILEO 16)", "group": "galileo", "lat": -25.01543450423793, "lon": 87.61999197430895, "alt_km": 23222.635233196368, "timestamp": "2025-12-06T03:35:02.133065+00:00", "meta": {"OBJECT_NAME": "GSAT0212 (GALILEO 16)", "OBJECT_ID": "2016-069B", "EPOCH": "2025-12-02T16:19:30.905184", "MEAN_MOTION": 1.70474418, "ECCENTRICITY": 0.00022458, "INCLINATION": 55.3738, "RA_OF_ASC_NODE": 106.5243, "ARG_OF_PERICENTER": 34.2432, "MEAN_ANOMALY": 325.7313, "EPHEMERIS_TYPE": 0, "CLASSIFICATION_TYPE": "U", "NORAD_CAT_ID": 41860, "ELEMENT_SET_NO": 999, "REV_AT_EPOCH": 5630, "BSTAR": 0, "MEAN_MOTION_DOT": 2.7e-07, "MEAN_MOTION_DDOT": 0}, "tle": {"line1": "1 41860U 16069B   25336.68021881  .00000027  00000+0  00000+0 0  9991", "line2": "2 41860  55.3738 106.5243 0002245  34.2432 325.7313  1.70474418 56308"}}, "geometry": {"type": "Point", "coordinates": [87.61999197430895, -25.01543450423793]}}, {"type": "Feature", "properties": {"norad_id": 41861, "name": "GSAT0213 (GALILEO 17)", "group": "galileo", "lat": 53.15088483865383, "lon": -140.66082668466004, "alt_km": 23222.233569563334, "timestamp": "2025-12-06T03:35:02.133082+00:00", "meta": {"OBJECT_NAME": "GSAT0213 (GALILEO 17)", "OBJECT_ID": "2016-069C", "EPOCH": "2025-12-04T19:22:49.962144", "MEAN_MOTION": 1.70474712, "ECCENTRICITY": 0.00021375, "INCLINATION": 55.3775, "RA_OF_ASC_NODE": 106.4729, "ARG_OF_PERICENTER": 283.7545, "MEAN_ANOMALY": 76.173, "EPHEMERIS_TYPE": 0, "CLASSIFICATION_TYPE": "U", "NORAD_CAT_ID": 41861, "ELEMENT_SET_NO": 999, "REV_AT_EPOCH": 5620, "BSTAR": 0, "MEAN_MOTION_DOT": 1e-07, "MEAN_MOTION_DDOT": 0}, "tle": {"line1": "1 41861U 16069C   25338.80752271  .00000010  00000+0  00000+0 0  9994", "line2": "2 41861  55.3775 106.4729 0002137 283.7545  76.1730  1.70474712 56200"}}, "geometry": {"type": "Point", "coordinates": [-140.66082668466004, 53.15088483865383]}}, {"type": "Feature", "properties": {"norad_id": 41862, "name": "GSAT0214 (GALILEO 18)", "group": "galileo", "lat": 11.40293325888714, "lon": 114.41566550232325, "alt_km": 23220.46931175543, "timestamp": "2025-12-06T03:35:02.133109+00:00", "meta": {"OBJECT_NAME": "GSAT0214 (GALILEO 18)", "OBJECT_ID": "2016-069D", "EPOCH": "2025-12-04T08:48:23.346432", "MEAN_MOTION": 1.7047456, "ECCENTRICITY": 0.00011429, "INCLINATION": 55.3755, "RA_OF_ASC_NODE": 106.478, "ARG_OF_PERICENTER": 290.8494, "MEAN_ANOMALY": 69.0905, "EPHEMERIS_TYPE": 0, "CLASSIFICATION_TYPE": "U", "NORAD_CAT_ID": 41862, "ELEMENT_SET_NO": 999, "REV_AT_EPOCH": 5632, "BSTAR": 0, "MEAN_MOTION_DOT": 1.3e-07, "MEAN_MOTION_DDOT": 0}, "tle": {"line1": "1 41862U 16069D   25338.36693688  .00000013  00000+0  00000+0 0  9995", "line2": "2 41862  55.3755 106.4780 0001142 290.8494  69.0905  1.70474560 56322"}}, "geometry": {"type": "Point", "coordinates": [114.41566550232325, 11.40293325888714]}}, {"type": "Feature", "properties": {"norad_id": 43055, "name": "GSAT0215 (GALILEO 19)", "group": "galileo", "lat": 51.73018228212628, "lon": -71.19745383363845, "alt_km": 23218.66067484144, "timestamp": "2025-12-06T03:35:02.133126+00:00", "meta": {"OBJECT_NAME": "GSAT0215 (GALILEO 19)", "OBJECT_ID": "2017-079A", "EPOCH": "2025-11-29T13:52:03.216864", "MEAN_MOTION": 1.70473718, "ECCENTRICITY": 0.0001588, "INCLINATION": 55.1353, "RA_OF_ASC_NODE": 227.0004, "ARG_OF_PERICENTER": 310.5234, "MEAN_ANOMALY": 49.536, "EPHEMERIS_TYPE": 0, "CLASSIFICATION_TYPE": "U", "NORAD_CAT_ID": 43055, "ELEMENT_SET_NO": 999, "REV_AT_EPOCH": 4958, "BSTAR": 0, "MEAN_MOTION_DOT": 2.7e-07, "MEAN_MOTION_DDOT": 0}, "tle": {"line1": "1 43055U 17079A   25333.57781501  .00000027  00000+0  00000+0 0  9998", "line2": "2 43055  55.1353 227.0004 0001588 310.5234  49.5360  1.70473718 49587"}}, "geometry": {"type": "Point", "coordinates": [-71.19745383363845, 51.73018228212628]}}, {"type": "Feature", "properties": {"norad_id": 43056, "name": "GSAT0216 (GALILEO 20)", "group": "galileo", "lat": -52.173533705689294, "lon": 110.58769955288192, "alt_km": 23223.86022299594, "timestamp": "2025-12-06T03:35:02.133138+00:00", "meta": {"OBJECT_NAME": "GSAT0216 (GALILEO 20)", "OBJECT_ID": "2017-079B", "EPOCH": "2025-12-03T23:24:20.577888", "MEAN_MOTION": 1.70473886, "ECCENTRICITY": 0.0002683, "INCLINATION": 55.1334, "RA_OF_ASC_NODE": 226.8793, "ARG_OF_PERICENTER": 313.43, "MEAN_ANOMALY": 46.6407, "EPHEMERIS_TYPE": 0, "CLASSIFICATION_TYPE": "U", "NORAD_CAT_ID": 43056, "ELEMENT_SET_NO": 999, "REV_AT_EPOCH": 4967, "BSTAR": 0, "MEAN_MOTION_DOT": 4.1e-07, "MEAN_MOTION_DDOT": 0}, "tle": {"line1": "1 43056U 17079B   25337.97523817  .00000041  00000+0  00000+0 0  9997", "line2": "2 43056  55.1334 226.8793 0002683 313.4300  46.6407  1.70473886 49678"}}, "geometry": {"type": "Point", "coordinates": [110.58769955288192, -52.173533705689294]}}, {"type": "Feature", "properties": {"norad_id": 43057, "name": "GSAT0217 (GALILEO 21)", "group": "galileo", "lat": 45.93773526225163, "lon": 0.8000534996995293, "alt_km": 23223.421068991232, "timestamp": "2025-12-06T03:35:02.133150+00:00", "meta": {"OBJECT_NAME": "GSAT0217 (GALILEO 21)", "OBJECT_ID": "2017-079C", "EPOCH": "2025-12-04T04:42:09.816480", "MEAN_MOTION": 1.70473692, "ECCENTRICITY": 0.00028457, "INCLINATION": 55.1313, "RA_OF_ASC_NODE": 226.8712, "ARG_OF_PERICENTER": 336.0147, "MEAN_ANOMALY": 24.0661, "EPHEMERIS_TYPE": 0, "CLASSIFICATION_TYPE": "U", "NORAD_CAT_ID": 43057, "ELEMENT_SET_NO": 999, "REV_AT_EPOCH": 4966, "BSTAR": 0, "MEAN_MOTION_DOT": 4.1e-07, "MEAN_MOTION_DDOT": 0}, "tle": {"line1": "1 43057U 17079C   25338.19594695  .00000041  00000+0  00000+0 0  9995", "line2": "2 43057  55.1313 226.8712 0002845 336.0147  24.0661  1.70473692 49663"}}, "geometry": {"type": "Point", "coordinates": [0.8000534996995293, 45.93773526225163]}}]}